INMARSAT 4-F2 (SOUTHPA*)
1 28899U 05044A   26164.57640691 -.00000254  00000+0  00000+0 0  9996
2 28899   5.0897  43.7030 0002811  36.3582 172.8276  1.00271325 75481
GSAT-8 (GAGAN/PRN 127)  
1 37605U 11022A   26164.87546090  .00000093  00000+0  00000+0 0  9995
2 37605   2.1223  81.8629 0002356 203.8512 346.7096  1.00272375 53183
LUCH 5A (SDCM/PRN 140)  
1 37951U 11074B   26164.50986266 -.00000046  00000+0  00000+0 0  9998
2 37951   8.7444  73.8614 0002177  24.6507 153.8242  1.00269799 53011
SES-5 (EGNOS/PRN 136)   
1 38652U 12036A   26164.69159682  .00000044  00000+0  00000+0 0  9997
2 38652   0.0481 312.5463 0001819 136.7140  66.6946  1.00270328 44428
GSAT-10 (GAGAN/PRN 128) 
1 38779U 12051B   26164.85007545 -.00000154  00000+0  00000+0 0  9995
2 38779   0.0893 263.4614 0007771 183.5888 204.1554  1.00270224 50065
LUCH 5B (SDCM/PRN 125)  
1 38977U 12061A   26163.97444869 -.00000133  00000+0  00000+0 0  9999
2 38977  10.4721  49.9205 0002346 149.8007  36.0976  1.00272671 49565
ASTRA 5B (EGNOS/PRN 123)
1 39617U 14011B   26164.83789994  .00000147  00000+0  00000+0 0  9999
2 39617   0.0480 332.5064 0001781  99.2113 155.5641  1.00271942 44635
LUCH 5V (SDCM/PRN 141)  
1 39727U 14023A   26164.86040181 -.00000263  00000+0  00000+0 0  9995
2 39727   5.1227  69.7760 0001830  43.3722 193.4324  1.00275795 44320
GSAT-15 (GAGAN/PRN 139) 
1 41028U 15065A   26164.85172858 -.00000247  00000+0  00000+0 0  9997
2 41028   0.0789 265.8246 0004058 160.8274 235.6206  1.00270859 38769
EUTELSAT 117 WEST B (W*)
1 41589U 16038B   26164.66750338 -.00000001  00000+0  00000+0 0  9992
2 41589   0.0229 164.5572 0000363 269.3905 311.3406  1.00270980 36620
SES-15 (WAAS/PRN 133)   
1 42709U 17026A   26164.73636186  .00000071  00000+0  00000+0 0  9993
2 42709   0.0203 332.3233 0000347  57.9056   7.7445  1.00267372  7398
QZS-2 (QZSS/PRN 194)    
1 42738U 17028A   26160.53939596 -.00000147  00000+0  00000+0 0  9997
2 42738  39.4388 243.2674 0760581 269.1776  81.0235  1.00285994  7547
QZS-3 (QZSS/PRN 199)    
1 42917U 17048A   26164.85322398  .00000000  00000+0  00000+0 0  9990
2 42917   0.0248 165.8698 0002432 285.6679 244.7390  1.00264590 32221
QZS-4 (QZSS/PRN 195)    
1 42965U 17062A   26164.35984206 -.00000329  00000+0  00000+0 0  9991
2 42965  40.1102 343.5314 0745256 271.6868 273.2941  1.00251407 31761
BEIDOU-3 G1 (PRN 130)   
1 43683U 18085A   26164.79353486 -.00000100  00000+0  00000+0 0  9990
2 43683   2.8583  97.4810 0008113 348.7857 261.4772  1.00270607 28020
EUTELSAT 5 WEST B (EGN*)
1 44624U 19067A   26164.76088866 -.00000032  00000+0  00000+0 0  9995
2 44624   0.0629 358.9027 0002899  82.7493  89.3589  1.00271945 24405
BEIDOU-3 G2 (PRN 144)   
1 45344U 20017A   26164.78011723 -.00000133  00000+0  00000+0 0  9994
2 45344   2.8561  47.2898 0002132  32.2609 183.4553  1.00272466 23228
BEIDOU-3 G3 (PRN 143)   
1 45807U 20040A   26164.87194813 -.00000345  00000+0  00000+0 0  9991
2 45807   2.4377  67.4399 0002461 336.0954 283.0958  1.00268380 22030
GALAXY 30 (WAAS/PRN 135)
1 46114U 20056C   26164.73714189  .00000048  00000+0  00000+0 0  9998
2 46114   0.0186  10.8339 0002051  78.7779 312.8076  1.00270247 21250
QZS-1R (QZSS/PRN 196)   
1 49336U 21096A   26164.64421600 -.00000269  00000+0  00000+0 0  9991
2 49336  37.4546  79.6370 0754578 271.7231 276.7370  1.00256479 16976
QZS-6 (QZSS/PRN 200)    
1 62876U 25023A   26164.88074787 -.00000223  00000+0  00000+0 0  9995
2 62876   0.0456  66.5573 0001714  23.3601 219.8656  1.00271546  4913
